CCSDS_OMM_VERS = 2.0
CREATION_DATE  = 
ORIGINATOR     = 

OBJECT_NAME    = ISS (ZARYA)
OBJECT_ID      = 1998-067A
CENTER_NAME    = EARTH
REF_FRAME      = TEME
TIME_SYSTEM    = UTC
MEAN_ELEMENT_THEORY = SGP/SGP4

EPOCH          = 2026-04-03T11:43:28.524576
MEAN_MOTION    = 15.48743801
ECCENTRICITY   = .00062343
INCLINATION    = 51.6327
RA_OF_ASC_NODE = 309.7562
ARG_OF_PERICENTER = 267.4493
MEAN_ANOMALY   = 92.5781

EPHEMERIS_TYPE = 0
CLASSIFICATION_TYPE = U
NORAD_CAT_ID   = 25544
ELEMENT_SET_NO = 999
REV_AT_EPOCH   = 56017
BSTAR          = .22309225E-3
MEAN_MOTION_DOT = .11755E-3
MEAN_MOTION_DDOT = 0

CCSDS_OMM_VERS = 2.0
CREATION_DATE  = 
ORIGINATOR     = 

OBJECT_NAME    = POISK
OBJECT_ID      = 2009-060A
CENTER_NAME    = EARTH
REF_FRAME      = TEME
TIME_SYSTEM    = UTC
MEAN_ELEMENT_THEORY = SGP/SGP4

EPOCH          = 2026-04-03T11:43:28.524576
MEAN_MOTION    = 15.48743801
ECCENTRICITY   = .00062343
INCLINATION    = 51.6327
RA_OF_ASC_NODE = 309.7562
ARG_OF_PERICENTER = 267.4493
MEAN_ANOMALY   = 92.5781

EPHEMERIS_TYPE = 0
CLASSIFICATION_TYPE = U
NORAD_CAT_ID   = 36086
ELEMENT_SET_NO = 999
REV_AT_EPOCH   = 55958
BSTAR          = .22309225E-3
MEAN_MOTION_DOT = .11755E-3
MEAN_MOTION_DDOT = 0

CCSDS_OMM_VERS = 2.0
CREATION_DATE  = 
ORIGINATOR     = 

OBJECT_NAME    = CSS (TIANHE)
OBJECT_ID      = 2021-035A
CENTER_NAME    = EARTH
REF_FRAME      = TEME
TIME_SYSTEM    = UTC
MEAN_ELEMENT_THEORY = SGP/SGP4

EPOCH          = 2026-04-03T15:53:28.326624
MEAN_MOTION    = 15.61949710
ECCENTRICITY   = .00037754
INCLINATION    = 41.4676
RA_OF_ASC_NODE = 56.0662
ARG_OF_PERICENTER = 116.3854
MEAN_ANOMALY   = 243.7373

EPHEMERIS_TYPE = 0
CLASSIFICATION_TYPE = U
NORAD_CAT_ID   = 48274
ELEMENT_SET_NO = 999
REV_AT_EPOCH   = 28151
BSTAR          = .34552756E-3
MEAN_MOTION_DOT = .30768E-3
MEAN_MOTION_DDOT = 0

CCSDS_OMM_VERS = 2.0
CREATION_DATE  = 
ORIGINATOR     = 

OBJECT_NAME    = ISS (NAUKA)
OBJECT_ID      = 2021-066A
CENTER_NAME    = EARTH
REF_FRAME      = TEME
TIME_SYSTEM    = UTC
MEAN_ELEMENT_THEORY = SGP/SGP4

EPOCH          = 2026-04-03T11:43:28.524576
MEAN_MOTION    = 15.48743801
ECCENTRICITY   = .00062343
INCLINATION    = 51.6327
RA_OF_ASC_NODE = 309.7562
ARG_OF_PERICENTER = 267.4493
MEAN_ANOMALY   = 92.5781

EPHEMERIS_TYPE = 0
CLASSIFICATION_TYPE = U
NORAD_CAT_ID   = 49044
ELEMENT_SET_NO = 999
REV_AT_EPOCH   = 55962
BSTAR          = .22309225E-3
MEAN_MOTION_DOT = .11755E-3
MEAN_MOTION_DDOT = 0

CCSDS_OMM_VERS = 2.0
CREATION_DATE  = 
ORIGINATOR     = 

OBJECT_NAME    = FREGAT DEB
OBJECT_ID      = 2011-037PF
CENTER_NAME    = EARTH
REF_FRAME      = TEME
TIME_SYSTEM    = UTC
MEAN_ELEMENT_THEORY = SGP/SGP4

EPOCH          = 2026-04-03T15:50:06.682848
MEAN_MOTION    = 12.40893621
ECCENTRICITY   = .0956541
INCLINATION    = 51.6426
RA_OF_ASC_NODE = 225.7704
ARG_OF_PERICENTER = 116.6538
MEAN_ANOMALY   = 253.5467

EPHEMERIS_TYPE = 0
CLASSIFICATION_TYPE = U
NORAD_CAT_ID   = 49271
ELEMENT_SET_NO = 999
REV_AT_EPOCH   = 21579
BSTAR          = .20297607E-1
MEAN_MOTION_DOT = .14094E-3
MEAN_MOTION_DDOT = 0

CCSDS_OMM_VERS = 2.0
CREATION_DATE  = 
ORIGINATOR     = 

OBJECT_NAME    = CSS (WENTIAN)
OBJECT_ID      = 2022-085A
CENTER_NAME    = EARTH
REF_FRAME      = TEME
TIME_SYSTEM    = UTC
MEAN_ELEMENT_THEORY = SGP/SGP4

EPOCH          = 2026-04-03T15:53:28.326624
MEAN_MOTION    = 15.61949710
ECCENTRICITY   = .00037754
INCLINATION    = 41.4676
RA_OF_ASC_NODE = 56.0662
ARG_OF_PERICENTER = 116.3854
MEAN_ANOMALY   = 243.7373

EPHEMERIS_TYPE = 0
CLASSIFICATION_TYPE = U
NORAD_CAT_ID   = 53239
ELEMENT_SET_NO = 999
REV_AT_EPOCH   = 28115
BSTAR          = .34552756E-3
MEAN_MOTION_DOT = .30768E-3
MEAN_MOTION_DDOT = 0

CCSDS_OMM_VERS = 2.0
CREATION_DATE  = 
ORIGINATOR     = 

OBJECT_NAME    = CSS (MENGTIAN)
OBJECT_ID      = 2022-143A
CENTER_NAME    = EARTH
REF_FRAME      = TEME
TIME_SYSTEM    = UTC
MEAN_ELEMENT_THEORY = SGP/SGP4

EPOCH          = 2026-04-03T15:53:28.326624
MEAN_MOTION    = 15.61949710
ECCENTRICITY   = .00037754
INCLINATION    = 41.4676
RA_OF_ASC_NODE = 56.0662
ARG_OF_PERICENTER = 116.3854
MEAN_ANOMALY   = 243.7373

EPHEMERIS_TYPE = 0
CLASSIFICATION_TYPE = U
NORAD_CAT_ID   = 54216
ELEMENT_SET_NO = 999
REV_AT_EPOCH   = 28115
BSTAR          = .34552756E-3
MEAN_MOTION_DOT = .30768E-3
MEAN_MOTION_DDOT = 0

CCSDS_OMM_VERS = 2.0
CREATION_DATE  = 
ORIGINATOR     = 

OBJECT_NAME    = TIANZHOU-9
OBJECT_ID      = 2025-149A
CENTER_NAME    = EARTH
REF_FRAME      = TEME
TIME_SYSTEM    = UTC
MEAN_ELEMENT_THEORY = SGP/SGP4

EPOCH          = 2026-04-03T15:53:28.326624
MEAN_MOTION    = 15.61949710
ECCENTRICITY   = .00037754
INCLINATION    = 41.4676
RA_OF_ASC_NODE = 56.0662
ARG_OF_PERICENTER = 116.3854
MEAN_ANOMALY   = 243.7373

EPHEMERIS_TYPE = 0
CLASSIFICATION_TYPE = U
NORAD_CAT_ID   = 64786
ELEMENT_SET_NO = 999
REV_AT_EPOCH   = 28115
BSTAR          = .34552756E-3
MEAN_MOTION_DOT = .30768E-3
MEAN_MOTION_DDOT = 0

CCSDS_OMM_VERS = 2.0
CREATION_DATE  = 
ORIGINATOR     = 

OBJECT_NAME    = PROGRESS-MS 32
OBJECT_ID      = 2025-204A
CENTER_NAME    = EARTH
REF_FRAME      = TEME
TIME_SYSTEM    = UTC
MEAN_ELEMENT_THEORY = SGP/SGP4

EPOCH          = 2026-04-03T11:43:28.524576
MEAN_MOTION    = 15.48743801
ECCENTRICITY   = .00062343
INCLINATION    = 51.6327
RA_OF_ASC_NODE = 309.7562
ARG_OF_PERICENTER = 267.4493
MEAN_ANOMALY   = 92.5781

EPHEMERIS_TYPE = 0
CLASSIFICATION_TYPE = U
NORAD_CAT_ID   = 65586
ELEMENT_SET_NO = 999
REV_AT_EPOCH   = 55450
BSTAR          = .22309225E-3
MEAN_MOTION_DOT = .11755E-3
MEAN_MOTION_DDOT = 0

CCSDS_OMM_VERS = 2.0
CREATION_DATE  = 
ORIGINATOR     = 

OBJECT_NAME    = YOTSUBA-KULOVER
OBJECT_ID      = 1998-067XN
CENTER_NAME    = EARTH
REF_FRAME      = TEME
TIME_SYSTEM    = UTC
MEAN_ELEMENT_THEORY = SGP/SGP4

EPOCH          = 2026-04-03T13:42:04.150368
MEAN_MOTION    = 15.97505372
ECCENTRICITY   = .00075856
INCLINATION    = 51.6135
RA_OF_ASC_NODE = 286.9050
ARG_OF_PERICENTER = 259.6628
MEAN_ANOMALY   = 100.3526

EPHEMERIS_TYPE = 0
CLASSIFICATION_TYPE = U
NORAD_CAT_ID   = 65941
ELEMENT_SET_NO = 999
REV_AT_EPOCH   = 2745
BSTAR          = .14071621E-2
MEAN_MOTION_DOT = .641591E-2
MEAN_MOTION_DDOT = .18855207E-3

CCSDS_OMM_VERS = 2.0
CREATION_DATE  = 
ORIGINATOR     = 

OBJECT_NAME    = BOTAN
OBJECT_ID      = 1998-067XQ
CENTER_NAME    = EARTH
REF_FRAME      = TEME
TIME_SYSTEM    = UTC
MEAN_ELEMENT_THEORY = SGP/SGP4

EPOCH          = 2026-04-03T12:34:04.514304
MEAN_MOTION    = 15.95997602
ECCENTRICITY   = .00078225
INCLINATION    = 51.6177
RA_OF_ASC_NODE = 287.3695
ARG_OF_PERICENTER = 255.3413
MEAN_ANOMALY   = 104.6728

EPHEMERIS_TYPE = 0
CLASSIFICATION_TYPE = U
NORAD_CAT_ID   = 65943
ELEMENT_SET_NO = 999
REV_AT_EPOCH   = 2744
BSTAR          = .14646711E-2
MEAN_MOTION_DOT = .614723E-2
MEAN_MOTION_DDOT = .1696428E-3

CCSDS_OMM_VERS = 2.0
CREATION_DATE  = 
ORIGINATOR     = 

OBJECT_NAME    = HRC MONOBLOCK CAMERA
OBJECT_ID      = 1998-067XR
CENTER_NAME    = EARTH
REF_FRAME      = TEME
TIME_SYSTEM    = UTC
MEAN_ELEMENT_THEORY = SGP/SGP4

EPOCH          = 2026-04-03T13:30:49.505472
MEAN_MOTION    = 15.65013712
ECCENTRICITY   = .00037889
INCLINATION    = 51.6271
RA_OF_ASC_NODE = 299.7484
ARG_OF_PERICENTER = 216.5212
MEAN_ANOMALY   = 143.5525

EPHEMERIS_TYPE = 0
CLASSIFICATION_TYPE = U
NORAD_CAT_ID   = 66052
ELEMENT_SET_NO = 999
REV_AT_EPOCH   = 2628
BSTAR          = .77493275E-3
MEAN_MOTION_DOT = .77893E-3
MEAN_MOTION_DDOT = 0

