ISS (ZARYA)             
1 25544U 98067A   26093.48852459  .00011755  00000+0  22309-3 0  9992
2 25544  51.6327 309.7562 0006234 267.4493  92.5781 15.48743801560170
POISK                   
1 36086U 09060A   26093.48852459  .00011755  00000+0  22309-3 0  9990
2 36086  51.6327 309.7562 0006234 267.4493  92.5781 15.48743801559586
CSS (TIANHE)            
1 48274U 21035A   26093.66213341  .00030768  00000+0  34553-3 0  9998
2 48274  41.4676  56.0662 0003775 116.3854 243.7373 15.61949710281519
ISS (NAUKA)             
1 49044U 21066A   26093.48852459  .00011755  00000+0  22309-3 0  9998
2 49044  51.6327 309.7562 0006234 267.4493  92.5781 15.48743801559629
FREGAT DEB              
1 49271U 11037PF  26093.65979957  .00014094  00000+0  20298-1 0  9991
2 49271  51.6426 225.7704 0956541 116.6538 253.5467 12.40893621215798
CSS (WENTIAN)           
1 53239U 22085A   26093.66213341  .00030768  00000+0  34553-3 0  9991
2 53239  41.4676  56.0662 0003775 116.3854 243.7373 15.61949710281156
CSS (MENGTIAN)          
1 54216U 22143A   26093.66213341  .00030768  00000+0  34553-3 0  9992
2 54216  41.4676  56.0662 0003775 116.3854 243.7373 15.61949710281152
TIANZHOU-9              
1 64786U 25149A   26093.66213341  .00030768  00000+0  34553-3 0  9994
2 64786  41.4676  56.0662 0003775 116.3854 243.7373 15.61949710281155
PROGRESS-MS 32          
1 65586U 25204A   26093.48852459  .00011755  00000+0  22309-3 0  9995
2 65586  51.6327 309.7562 0006234 267.4493  92.5781 15.48743801554500
YOTSUBA-KULOVER         
1 65941U 98067XN  26093.57088137  .00641591  18855-3  14072-2 0  9996
2 65941  51.6135 286.9050 0007585 259.6628 100.3526 15.97505372 27450
BOTAN                   
1 65943U 98067XQ  26093.52366336  .00614723  16964-3  14647-2 0  9997
2 65943  51.6177 287.3695 0007822 255.3413 104.6728 15.95997602 27446
HRC MONOBLOCK CAMERA    
1 66052U 98067XR  26093.56307298  .00077893  00000+0  77493-3 0  9995
2 66052  51.6271 299.7484 0003788 216.5212 143.5525 15.65013712 26285
